[{"OBJECT_NAME":"STARLINK-3552","OBJECT_ID":"2022-017AX","EPOCH":"2026-03-09T22:46:59.222784","MEAN_MOTION":15.08832758,"ECCENTRICITY":0.00011223,"INCLINATION":53.2185,"RA_OF_ASC_NODE":327.9839,"ARG_OF_PERICENTER":78.4437,"MEAN_ANOMALY":281.6681,"EPHEMERIS_TYPE":0,"CLASSIFICATION_TYPE":"U","NORAD_CAT_ID":51813,"ELEMENT_SET_NO":999,"REV_AT_EPOCH":22412,"BSTAR":4.102763e-6,"MEAN_MOTION_DOT":-2.22e-6,"MEAN_MOTION_DDOT":0},{"OBJECT_NAME":"OBJECT C","OBJECT_ID":"2025-313C","EPOCH":"2026-03-09T21:13:39.359712","MEAN_MOTION":14.86307196,"ECCENTRICITY":0.01562422,"INCLINATION":97.6236,"RA_OF_ASC_NODE":143.4861,"ARG_OF_PERICENTER":305.4656,"MEAN_ANOMALY":53.2062,"EPHEMERIS_TYPE":0,"CLASSIFICATION_TYPE":"U","NORAD_CAT_ID":67250,"ELEMENT_SET_NO":999,"REV_AT_EPOCH":1059,"BSTAR":0.0010268788,"MEAN_MOTION_DOT":0.00011246,"MEAN_MOTION_DDOT":0}]
